{"type": "FeatureCollection", "features": [{"type": "Feature", "properties": {"norad_id": 22490, "name": "SCD 1", "group": "resource", "lat": -11.953073521888998, "lon": 85.82048802168607, "alt_km": 767.9944010935378, "timestamp": "2025-12-19T04:59:47.956888+00:00", "meta": {"OBJECT_NAME": "SCD 1", "OBJECT_ID": "1993-009B", "EPOCH": "2025-12-18T10:33:14.558976", "MEAN_MOTION": 14.46002995, "ECCENTRICITY": 0.00420424, "INCLINATION": 24.9686, "RA_OF_ASC_NODE": 243.5007, "ARG_OF_PERICENTER": 25.3935, "MEAN_ANOMALY": 135.5853, "EPHEMERIS_TYPE": 0, "CLASSIFICATION_TYPE": "U", "NORAD_CAT_ID": 22490, "ELEMENT_SET_NO": 999, "REV_AT_EPOCH": 73492, "BSTAR": 7.3091886e-05, "MEAN_MOTION_DOT": 4.52e-06, "MEAN_MOTION_DDOT": 0}, "tle": {"line1": "1 22490U 93009B   25352.43975184  .00000452  00000+0  73092-4 0  9991", "line2": "2 22490  24.9686 243.5007 0042042  25.3935 135.5853 14.46002995734929"}}, "geometry": {"type": "Point", "coordinates": [85.82048802168607, -11.953073521888998]}}, {"type": "Feature", "properties": {"norad_id": 25397, "name": "TECHSAT 1B (GO-32)", "group": "resource", "lat": -19.05411518799251, "lon": 153.4345350805878, "alt_km": 816.8031414608031, "timestamp": "2025-12-19T04:59:47.956922+00:00", "meta": {"OBJECT_NAME": "TECHSAT 1B (GO-32)", "OBJECT_ID": "1998-043D", "EPOCH": "2025-12-18T23:00:24.698880", "MEAN_MOTION": 14.24378824, "ECCENTRICITY": 0.00018731, "INCLINATION": 98.9925, "RA_OF_ASC_NODE": 336.3144, "ARG_OF_PERICENTER": 47.5092, "MEAN_ANOMALY": 312.6244, "EPHEMERIS_TYPE": 0, "CLASSIFICATION_TYPE": "U", "NORAD_CAT_ID": 25397, "ELEMENT_SET_NO": 999, "REV_AT_EPOCH": 42567, "BSTAR": 4.8738497e-05, "MEAN_MOTION_DOT": 6.6e-07, "MEAN_MOTION_DDOT": 0}, "tle": {"line1": "1 25397U 98043D   25352.95861920  .00000066  00000+0  48738-4 0  9992", "line2": "2 25397  98.9925 336.3144 0001873  47.5092 312.6244 14.24378824425679"}}, "geometry": {"type": "Point", "coordinates": [153.4345350805878, -19.05411518799251]}}, {"type": "Feature", "properties": {"norad_id": 25504, "name": "SCD 2", "group": "resource", "lat": -18.23646613167453, "lon": -32.97770886255401, "alt_km": 751.5122828489757, "timestamp": "2025-12-19T04:59:47.956938+00:00", "meta": {"OBJECT_NAME": "SCD 2", "OBJECT_ID": "1998-060A", "EPOCH": "2025-12-18T15:14:50.678592", "MEAN_MOTION": 14.45426465, "ECCENTRICITY": 0.00168952, "INCLINATION": 24.9943, "RA_OF_ASC_NODE": 105.5425, "ARG_OF_PERICENTER": 16.0546, "MEAN_ANOMALY": 104.7334, "EPHEMERIS_TYPE": 0, "CLASSIFICATION_TYPE": "U", "NORAD_CAT_ID": 25504, "ELEMENT_SET_NO": 999, "REV_AT_EPOCH": 43417, "BSTAR": 5.2682688e-05, "MEAN_MOTION_DOT": 3.7e-06, "MEAN_MOTION_DDOT": 0}, "tle": {"line1": "1 25504U 98060A   25352.63530878  .00000370  00000+0  52683-4 0  9993", "line2": "2 25504  24.9943 105.5425 0016895  16.0546 104.7334 14.45426465434174"}}, "geometry": {"type": "Point", "coordinates": [-32.97770886255401, -18.23646613167453]}}, {"type": "Feature", "properties": {"norad_id": 25757, "name": "DLR-TUBSAT", "group": "resource", "lat": -11.96251444983836, "lon": -20.228646785762464, "alt_km": 732.3701574909373, "timestamp": "2025-12-19T04:59:47.956951+00:00", "meta": {"OBJECT_NAME": "DLR-TUBSAT", "OBJECT_ID": "1999-029B", "EPOCH": "2025-12-17T13:22:10.787520", "MEAN_MOTION": 14.52359578, "ECCENTRICITY": 0.00141996, "INCLINATION": 98.6566, "RA_OF_ASC_NODE": 336.2196, "ARG_OF_PERICENTER": 177.8976, "MEAN_ANOMALY": 182.2281, "EPHEMERIS_TYPE": 0, "CLASSIFICATION_TYPE": "U", "NORAD_CAT_ID": 25757, "ELEMENT_SET_NO": 999, "REV_AT_EPOCH": 40688, "BSTAR": 3.7650132e-05, "MEAN_MOTION_DOT": 1.05e-06, "MEAN_MOTION_DDOT": 0}, "tle": {"line1": "1 25757U 99029B   25351.55706930  .00000105  00000+0  37650-4 0  9996", "line2": "2 25757  98.6566 336.2196 0014199 177.8976 182.2281 14.52359578406886"}}, "geometry": {"type": "Point", "coordinates": [-20.228646785762464, -11.96251444983836]}}, {"type": "Feature", "properties": {"norad_id": 25994, "name": "TERRA", "group": "resource", "lat": -68.18545515157554, "lon": -155.84412231325993, "alt_km": 699.9666911195145, "timestamp": "2025-12-19T04:59:47.956968+00:00", "meta": {"OBJECT_NAME": "TERRA", "OBJECT_ID": "1999-068A", "EPOCH": "2025-12-18T21:48:31.154688", "MEAN_MOTION": 14.60908676, "ECCENTRICITY": 0.00035621, "INCLINATION": 97.974, "RA_OF_ASC_NODE": 44.3666, "ARG_OF_PERICENTER": 82.3399, "MEAN_ANOMALY": 33.0253, "EPHEMERIS_TYPE": 0, "CLASSIFICATION_TYPE": "U", "NORAD_CAT_ID": 25994, "ELEMENT_SET_NO": 999, "REV_AT_EPOCH": 38328, "BSTAR": 8.6808347e-05, "MEAN_MOTION_DOT": 3.8e-06, "MEAN_MOTION_DDOT": 0}, "tle": {"line1": "1 25994U 99068A   25352.90869392  .00000380  00000+0  86808-4 0  9998", "line2": "2 25994  97.9740  44.3666 0003562  82.3399  33.0253 14.60908676383283"}}, "geometry": {"type": "Point", "coordinates": [-155.84412231325993, -68.18545515157554]}}, {"type": "Feature", "properties": {"norad_id": 27004, "name": "MAROC-TUBSAT", "group": "resource", "lat": -66.71089604561921, "lon": -174.5823896012911, "alt_km": 996.4247934984205, "timestamp": "2025-12-19T04:59:47.956980+00:00", "meta": {"OBJECT_NAME": "MAROC-TUBSAT", "OBJECT_ID": "2001-056D", "EPOCH": "2025-12-18T23:07:19.779168", "MEAN_MOTION": 13.70253243, "ECCENTRICITY": 0.00191554, "INCLINATION": 99.7914, "RA_OF_ASC_NODE": 161.5174, "ARG_OF_PERICENTER": 243.5536, "MEAN_ANOMALY": 280.7561, "EPHEMERIS_TYPE": 0, "CLASSIFICATION_TYPE": "U", "NORAD_CAT_ID": 27004, "ELEMENT_SET_NO": 999, "REV_AT_EPOCH": 20150, "BSTAR": 2.6406342e-05, "MEAN_MOTION_DOT": -2.3e-07, "MEAN_MOTION_DDOT": 0}, "tle": {"line1": "1 27004U 01056D   25352.96342337 -.00000023  00000+0  26406-4 0  9996", "line2": "2 27004  99.7914 161.5174 0019155 243.5536 280.7561 13.70253243201505"}}, "geometry": {"type": "Point", "coordinates": [-174.5823896012911, -66.71089604561921]}}, {"type": "Feature", "properties": {"norad_id": 27424, "name": "AQUA", "group": "resource", "lat": 33.40671949211311, "lon": 139.7882698786042, "alt_km": 684.4783495457605, "timestamp": "2025-12-19T04:59:47.956991+00:00", "meta": {"OBJECT_NAME": "AQUA", "OBJECT_ID": "2002-022A", "EPOCH": "2025-12-18T00:44:29.182848", "MEAN_MOTION": 14.61821302, "ECCENTRICITY": 0.00012878, "INCLINATION": 98.4043, "RA_OF_ASC_NODE": 312.9961, "ARG_OF_PERICENTER": 113.4651, "MEAN_ANOMALY": 320.6588, "EPHEMERIS_TYPE": 0, "CLASSIFICATION_TYPE": "U", "NORAD_CAT_ID": 27424, "ELEMENT_SET_NO": 999, "REV_AT_EPOCH": 25680, "BSTAR": 0.00017905095, "MEAN_MOTION_DOT": 8.45e-06, "MEAN_MOTION_DDOT": 0}, "tle": {"line1": "1 27424U 02022A   25352.03089332  .00000845  00000+0  17905-3 0  9991", "line2": "2 27424  98.4043 312.9961 0001287 113.4651 320.6588 14.61821302256800"}}, "geometry": {"type": "Point", "coordinates": [139.7882698786042, 33.40671949211311]}}, {"type": "Feature", "properties": {"norad_id": 28051, "name": "IRS-P6 (RESOURCESAT-1)", "group": "resource", "lat": 47.81225389800739, "lon": -137.50993965455515, "alt_km": 727.133615043721, "timestamp": "2025-12-19T04:59:47.957002+00:00", "meta": {"OBJECT_NAME": "IRS-P6 (RESOURCESAT-1)", "OBJECT_ID": "2003-046A", "EPOCH": "2025-12-18T23:54:27.276192", "MEAN_MOTION": 14.36077261, "ECCENTRICITY": 0.00645036, "INCLINATION": 98.2174, "RA_OF_ASC_NODE": 33.1137, "ARG_OF_PERICENTER": 161.9517, "MEAN_ANOMALY": 314.2583, "EPHEMERIS_TYPE": 0, "CLASSIFICATION_TYPE": "U", "NORAD_CAT_ID": 28051, "ELEMENT_SET_NO": 999, "REV_AT_EPOCH": 15466, "BSTAR": 4.5749196e-05, "MEAN_MOTION_DOT": 9.6e-07, "MEAN_MOTION_DDOT": 0}, "tle": {"line1": "1 28051U 03046A   25352.99614903  .00000096  00000+0  45749-4 0  9994", "line2": "2 28051  98.2174  33.1137 0064503 161.9517 314.2583 14.36077261154660"}}, "geometry": {"type": "Point", "coordinates": [-137.50993965455515, 47.81225389800739]}}, {"type": "Feature", "properties": {"norad_id": 28220, "name": "SHIYAN-1 (SY-1)", "group": "resource", "lat": -11.806929547276651, "lon": 56.79105281271141, "alt_km": 482.96439099905274, "timestamp": "2025-12-19T04:59:47.957013+00:00", "meta": {"OBJECT_NAME": "SHIYAN-1 (SY-1)", "OBJECT_ID": "2004-012A", "EPOCH": "2025-12-18T18:02:56.639616", "MEAN_MOTION": 15.28295514, "ECCENTRICITY": 0.00052917, "INCLINATION": 97.8933, "RA_OF_ASC_NODE": 54.646, "ARG_OF_PERICENTER": 301.1379, "MEAN_ANOMALY": 58.934, "EPHEMERIS_TYPE": 0, "CLASSIFICATION_TYPE": "U", "NORAD_CAT_ID": 28220, "ELEMENT_SET_NO": 999, "REV_AT_EPOCH": 18348, "BSTAR": 0.00037272421, "MEAN_MOTION_DOT": 0.00010199, "MEAN_MOTION_DDOT": 0}, "tle": {"line1": "1 28220U 04012A   25352.75204444  .00010199  00000+0  37272-3 0  9991", "line2": "2 28220  97.8933  54.6460 0005291 301.1379  58.9340 15.28295514183486"}}, "geometry": {"type": "Point", "coordinates": [56.79105281271141, -11.806929547276651]}}, {"type": "Feature", "properties": {"norad_id": 28376, "name": "AURA", "group": "resource", "lat": -74.85485882403472, "lon": 90.74020208902355, "alt_km": 698.2948717378749, "timestamp": "2025-12-19T04:59:47.957024+00:00", "meta": {"OBJECT_NAME": "AURA", "OBJECT_ID": "2004-026A", "EPOCH": "2025-12-18T21:14:51.690336", "MEAN_MOTION": 14.60960484, "ECCENTRICITY": 0.00013366, "INCLINATION": 98.3192, "RA_OF_ASC_NODE": 303.1406, "ARG_OF_PERICENTER": 93.1458, "MEAN_ANOMALY": 266.9895, "EPHEMERIS_TYPE": 0, "CLASSIFICATION_TYPE": "U", "NORAD_CAT_ID": 28376, "ELEMENT_SET_NO": 999, "REV_AT_EPOCH": 13988, "BSTAR": 0.00017544657, "MEAN_MOTION_DOT": 8.12e-06, "MEAN_MOTION_DDOT": 0}, "tle": {"line1": "1 28376U 04026A   25352.88532049  .00000812  00000+0  17545-3 0  9999", "line2": "2 28376  98.3192 303.1406 0001336  93.1458 266.9895 14.60960484139886"}}, "geometry": {"type": "Point", "coordinates": [90.74020208902355, -74.85485882403472]}}]}